[{"OBJECT_NAME":"SL-8 R/B","OBJECT_ID":"1979-089B","EPOCH":"2026-03-05T05:41:29.071392","MEAN_MOTION":14.42347335,"ECCENTRICITY":0.00171367,"INCLINATION":74.0672,"RA_OF_ASC_NODE":99.287,"ARG_OF_PERICENTER":272.3978,"MEAN_ANOMALY":87.5216,"EPHEMERIS_TYPE":0,"CLASSIFICATION_TYPE":"U","NORAD_CAT_ID":11574,"ELEMENT_SET_NO":999,"REV_AT_EPOCH":43546,"BSTAR":0.00011914039,"MEAN_MOTION_DOT":3.68e-6,"MEAN_MOTION_DDOT":0},{"OBJECT_NAME":"SL-14 R/B","OBJECT_ID":"1980-005B","EPOCH":"2026-03-05T03:56:01.058496","MEAN_MOTION":14.90924299,"ECCENTRICITY":0.00157848,"INCLINATION":82.5154,"RA_OF_ASC_NODE":311.5291,"ARG_OF_PERICENTER":172.9693,"MEAN_ANOMALY":187.1751,"EPHEMERIS_TYPE":0,"CLASSIFICATION_TYPE":"U","NORAD_CAT_ID":11672,"ELEMENT_SET_NO":999,"REV_AT_EPOCH":47581,"BSTAR":7.5871386e-5,"MEAN_MOTION_DOT":7.75e-6,"MEAN_MOTION_DDOT":0},{"OBJECT_NAME":"SL-8 R/B","OBJECT_ID":"1981-003B","EPOCH":"2026-03-05T02:23:27.419424","MEAN_MOTION":15.1075862,"ECCENTRICITY":0.02626175,"INCLINATION":82.9385,"RA_OF_ASC_NODE":294.2686,"ARG_OF_PERICENTER":194.5791,"MEAN_ANOMALY":164.7768,"EPHEMERIS_TYPE":0,"CLASSIFICATION_TYPE":"U","NORAD_CAT_ID":12139,"ELEMENT_SET_NO":999,"REV_AT_EPOCH":31398,"BSTAR":0.00054116078,"MEAN_MOTION_DOT":0.0002099,"MEAN_MOTION_DDOT":0},{"OBJECT_NAME":"SL-3 R/B","OBJECT_ID":"1981-046B","EPOCH":"2026-03-05T05:48:15.824448","MEAN_MOTION":15.41858348,"ECCENTRICITY":0.00199655,"INCLINATION":81.2304,"RA_OF_ASC_NODE":295.0856,"ARG_OF_PERICENTER":37.3903,"MEAN_ANOMALY":322.8724,"EPHEMERIS_TYPE":0,"CLASSIFICATION_TYPE":"U","NORAD_CAT_ID":12465,"ELEMENT_SET_NO":999,"REV_AT_EPOCH":43774,"BSTAR":0.00035196841,"MEAN_MOTION_DOT":0.00015076,"MEAN_MOTION_DDOT":0},{"OBJECT_NAME":"SL-3 R/B","OBJECT_ID":"1981-103B","EPOCH":"2026-03-05T05:37:01.522560","MEAN_MOTION":15.21310641,"ECCENTRICITY":0.00124541,"INCLINATION":81.1579,"RA_OF_ASC_NODE":218.6584,"ARG_OF_PERICENTER":302.751,"MEAN_ANOMALY":57.252,"EPHEMERIS_TYPE":0,"CLASSIFICATION_TYPE":"U","NORAD_CAT_ID":12904,"ELEMENT_SET_NO":999,"REV_AT_EPOCH":97255,"BSTAR":0.0003594111,"MEAN_MOTION_DOT":8.083e-5,"MEAN_MOTION_DDOT":0},{"OBJECT_NAME":"SL-3 R/B","OBJECT_ID":"1982-013B","EPOCH":"2026-03-05T05:51:20.385216","MEAN_MOTION":15.21961057,"ECCENTRICITY":0.00223769,"INCLINATION":81.1767,"RA_OF_ASC_NODE":165.9798,"ARG_OF_PERICENTER":192.2934,"MEAN_ANOMALY":167.7755,"EPHEMERIS_TYPE":0,"CLASSIFICATION_TYPE":"U","NORAD_CAT_ID":13068,"ELEMENT_SET_NO":999,"REV_AT_EPOCH":40367,"BSTAR":0.00027111817,"MEAN_MOTION_DOT":6.25e-5,"MEAN_MOTION_DDOT":0},{"OBJECT_NAME":"SL-3 R/B","OBJECT_ID":"1982-039B","EPOCH":"2026-03-05T06:48:13.728672","MEAN_MOTION":15.10049873,"ECCENTRICITY":0.00298415,"INCLINATION":81.1582,"RA_OF_ASC_NODE":221.0417,"ARG_OF_PERICENTER":338.8451,"MEAN_ANOMALY":21.1537,"EPHEMERIS_TYPE":0,"CLASSIFICATION_TYPE":"U","NORAD_CAT_ID":13154,"ELEMENT_SET_NO":999,"REV_AT_EPOCH":38097,"BSTAR":0.00023116881,"MEAN_MOTION_DOT":3.822e-5,"MEAN_MOTION_DDOT":0},{"OBJECT_NAME":"SL-3 R/B","OBJECT_ID":"1982-079B","EPOCH":"2026-03-05T08:03:20.180736","MEAN_MOTION":15.24719795,"ECCENTRICITY":0.00248803,"INCLINATION":81.1477,"RA_OF_ASC_NODE":198.217,"ARG_OF_PERICENTER":179.283,"MEAN_ANOMALY":180.8443,"EPHEMERIS_TYPE":0,"CLASSIFICATION_TYPE":"U","NORAD_CAT_ID":13403,"ELEMENT_SET_NO":999,"REV_AT_EPOCH":37703,"BSTAR":0.00035227419,"MEAN_MOTION_DOT":8.82e-5,"MEAN_MOTION_DDOT":0},{"OBJECT_NAME":"SL-14 R/B","OBJECT_ID":"1982-092B","EPOCH":"2026-03-05T06:26:17.911104","MEAN_MOTION":14.86661399,"ECCENTRICITY":0.00192643,"INCLINATION":82.5702,"RA_OF_ASC_NODE":145.5346,"ARG_OF_PERICENTER":319.1682,"MEAN_ANOMALY":100.0657,"EPHEMERIS_TYPE":0,"CLASSIFICATION_TYPE":"U","NORAD_CAT_ID":13553,"ELEMENT_SET_NO":999,"REV_AT_EPOCH":32827,"BSTAR":7.3133221e-5,"MEAN_MOTION_DOT":6.76e-6,"MEAN_MOTION_DDOT":0},{"OBJECT_NAME":"SL-3 R/B","OBJECT_ID":"1983-010B","EPOCH":"2026-03-05T05:32:46.709088","MEAN_MOTION":15.46165473,"ECCENTRICITY":0.00183325,"INCLINATION":81.1066,"RA_OF_ASC_NODE":7.7115,"ARG_OF_PERICENTER":65.2047,"MEAN_ANOMALY":295.1102,"EPHEMERIS_TYPE":0,"CLASSIFICATION_TYPE":"U","NORAD_CAT_ID":13819,"ELEMENT_SET_NO":999,"REV_AT_EPOCH":35725,"BSTAR":0.00042662315,"MEAN_MOTION_DOT":0.00021117,"MEAN_MOTION_DDOT":0},{"OBJECT_NAME":"SL-3 R/B","OBJECT_ID":"1983-075B","EPOCH":"2026-03-05T06:20:03.342912","MEAN_MOTION":15.38288914,"ECCENTRICITY":0.00197946,"INCLINATION":97.6136,"RA_OF_ASC_NODE":68.6735,"ARG_OF_PERICENTER":243.1653,"MEAN_ANOMALY":116.7567,"EPHEMERIS_TYPE":0,"CLASSIFICATION_TYPE":"U","NORAD_CAT_ID":14208,"ELEMENT_SET_NO":999,"REV_AT_EPOCH":32947,"BSTAR":0.00037085702,"MEAN_MOTION_DOT":0.00014006,"MEAN_MOTION_DDOT":0},{"OBJECT_NAME":"COSMOS 1536","OBJECT_ID":"1984-013A","EPOCH":"2026-03-05T04:31:55.630848","MEAN_MOTION":15.23756826,"ECCENTRICITY":0.00127026,"INCLINATION":82.5434,"RA_OF_ASC_NODE":112.3248,"ARG_OF_PERICENTER":300.7697,"MEAN_ANOMALY":59.2289,"EPHEMERIS_TYPE":0,"CLASSIFICATION_TYPE":"U","NORAD_CAT_ID":14699,"ELEMENT_SET_NO":999,"REV_AT_EPOCH":27193,"BSTAR":0.00031531771,"MEAN_MOTION_DOT":7.629e-5,"MEAN_MOTION_DDOT":0},{"OBJECT_NAME":"SL-14 R/B","OBJECT_ID":"1984-027B","EPOCH":"2026-03-04T23:30:30.627360","MEAN_MOTION":14.8597046,"ECCENTRICITY":0.00177644,"INCLINATION":82.5381,"RA_OF_ASC_NODE":249.4315,"ARG_OF_PERICENTER":353.9919,"MEAN_ANOMALY":6.1081,"EPHEMERIS_TYPE":0,"CLASSIFICATION_TYPE":"U","NORAD_CAT_ID":14820,"ELEMENT_SET_NO":999,"REV_AT_EPOCH":24693,"BSTAR":6.8916326e-5,"MEAN_MOTION_DOT":6.27e-6,"MEAN_MOTION_DDOT":0},{"OBJECT_NAME":"SL-8 R/B","OBJECT_ID":"1985-006B","EPOCH":"2026-03-05T00:19:27.444576","MEAN_MOTION":14.37778848,"ECCENTRICITY":0.00186373,"INCLINATION":74.0433,"RA_OF_ASC_NODE":269.7539,"ARG_OF_PERICENTER":188.647,"MEAN_ANOMALY":322.4053,"EPHEMERIS_TYPE":0,"CLASSIFICATION_TYPE":"U","NORAD_CAT_ID":15483,"ELEMENT_SET_NO":999,"REV_AT_EPOCH":15335,"BSTAR":7.2308355e-5,"MEAN_MOTION_DOT":1.92e-6,"MEAN_MOTION_DDOT":0},{"OBJECT_NAME":"SL-12 R/B(2)","OBJECT_ID":"1985-042D","EPOCH":"2026-03-05T06:21:31.025088","MEAN_MOTION":14.21981194,"ECCENTRICITY":0.0033424,"INCLINATION":71.1064,"RA_OF_ASC_NODE":97.078,"ARG_OF_PERICENTER":135.3926,"MEAN_ANOMALY":298.7744,"EPHEMERIS_TYPE":0,"CLASSIFICATION_TYPE":"U","NORAD_CAT_ID":15772,"ELEMENT_SET_NO":999,"REV_AT_EPOCH":11376,"BSTAR":8.6963675e-5,"MEAN_MOTION_DOT":1.46e-6,"MEAN_MOTION_DDOT":0},{"OBJECT_NAME":"SL-14 R/B","OBJECT_ID":"1985-069B","EPOCH":"2026-03-05T04:01:27.753312","MEAN_MOTION":14.86426563,"ECCENTRICITY":0.00180723,"INCLINATION":82.5275,"RA_OF_ASC_NODE":29.1846,"ARG_OF_PERICENTER":203.0256,"MEAN_ANOMALY":157.0153,"EPHEMERIS_TYPE":0,"CLASSIFICATION_TYPE":"U","NORAD_CAT_ID":15945,"ELEMENT_SET_NO":999,"REV_AT_EPOCH":17216,"BSTAR":7.7503676e-5,"MEAN_MOTION_DOT":7.1e-6,"MEAN_MOTION_DDOT":0},{"OBJECT_NAME":"SL-16 R/B","OBJECT_ID":"1985-097B","EPOCH":"2026-03-05T05:56:21.007968","MEAN_MOTION":14.16599689,"ECCENTRICITY":0.00099716,"INCLINATION":71.0036,"RA_OF_ASC_NODE":149.906,"ARG_OF_PERICENTER":265.1071,"MEAN_ANOMALY":114.7583,"EPHEMERIS_TYPE":0,"CLASSIFICATION_TYPE":"U","NORAD_CAT_ID":16182,"ELEMENT_SET_NO":999,"REV_AT_EPOCH":8660,"BSTAR":-1.6438988e-5,"MEAN_MOTION_DOT":-8.1e-7,"MEAN_MOTION_DDOT":0}]
